{
  "type": "FeatureCollection",
  "features": [
    {
      "type": "Feature",
      "properties": {
        "norad_id": 36459,
        "name": "COSMOS 2251 DEB",
        "group": "cosmos-2251-debris",
        "lat": -33.03667303796977,
        "lon": 7.8052730561466,
        "alt_km": 881.8215128138418,
        "timestamp": "2025-12-02T08:59:33.112150+00:00",
        "meta_object_name": "COSMOS 2251 DEB",
        "meta_object_id": "1993-036BBJ",
        "meta_epoch": "2025-11-27T21:25:14.011392",
        "meta_mean_motion": 14.2626117,
        "meta_eccentricity": 0.0114133,
        "meta_inclination": 74.0487,
        "meta_ra_of_asc_node": 26.6161,
        "meta_arg_of_pericenter": 126.4072,
        "meta_mean_anomaly": 234.7668,
        "meta_ephemeris_type": 0,
        "meta_classification_type": "U",
        "meta_norad_cat_id": 36459,
        "meta_element_set_no": 999,
        "meta_rev_at_epoch": 7670,
        "meta_bstar": 0.0017749,
        "meta_mean_motion_dot": 4.537e-05,
        "meta_mean_motion_ddot": 0,
        "tle_line1": "1 36459U 93036BBJ 25331.89252328  .00004537  00000+0  17749-2 0  9999",
        "tle_line2": "2 36459  74.0487  26.6161 0114133 126.4072 234.7668 14.26261170 76702"
      },
      "geometry": {
        "type": "Point",
        "coordinates": [
          7.8052730561466,
          -33.03667303796977
        ]
      }
    },
    {
      "type": "Feature",
      "properties": {
        "norad_id": 36470,
        "name": "COSMOS 2251 DEB",
        "group": "cosmos-2251-debris",
        "lat": -71.4793870013665,
        "lon": 155.84664497953952,
        "alt_km": 570.4945274396032,
        "timestamp": "2025-12-02T08:59:33.112160+00:00",
        "meta_object_name": "COSMOS 2251 DEB",
        "meta_object_id": "1993-036BBV",
        "meta_epoch": "2025-12-02T03:03:18.135936",
        "meta_mean_motion": 15.05586615,
        "meta_eccentricity": 0.0021849,
        "meta_inclination": 73.8455,
        "meta_ra_of_asc_node": 276.4446,
        "meta_arg_of_pericenter": 104.1241,
        "meta_mean_anomaly": 256.2378,
        "meta_ephemeris_type": 0,
        "meta_classification_type": "U",
        "meta_norad_cat_id": 36470,
        "meta_element_set_no": 999,
        "meta_rev_at_epoch": 65934,
        "meta_bstar": 0.004011,
        "meta_mean_motion_dot": 0.00058582,
        "meta_mean_motion_ddot": 0,
        "tle_line1": "1 36470U 93036BBV 25336.12729324  .00058582  00000+0  40110-2 0  9995",
        "tle_line2": "2 36470  73.8455 276.4446 0021849 104.1241 256.2378 15.05586615659346"
      },
      "geometry": {
        "type": "Point",
        "coordinates": [
          155.84664497953952,
          -71.4793870013665
        ]
      }
    },
    {
      "type": "Feature",
      "properties": {
        "norad_id": 36528,
        "name": "COSMOS 2251 DEB",
        "group": "cosmos-2251-debris",
        "lat": -69.89988173103256,
        "lon": 112.55425778939185,
        "alt_km": 771.8462529708249,
        "timestamp": "2025-12-02T08:59:33.112170+00:00",
        "meta_object_name": "COSMOS 2251 DEB",
        "meta_object_id": "1993-036BCN",
        "meta_epoch": "2025-11-28T19:45:32.756256",
        "meta_mean_motion": 14.30521775,
        "meta_eccentricity": 0.00858193,
        "meta_inclination": 74.0168,
        "meta_ra_of_asc_node": 170.5765,
        "meta_arg_of_pericenter": 223.2164,
        "meta_mean_anomaly": 136.2231,
        "meta_ephemeris_type": 0,
        "meta_classification_type": "U",
        "meta_norad_cat_id": 36528,
        "meta_element_set_no": 999,
        "meta_rev_at_epoch": 64228,
        "meta_bstar": 0.00075224171,
        "meta_mean_motion_dot": 2.015e-05,
        "meta_mean_motion_ddot": 0,
        "tle_line1": "1 36528U 93036BCN 25332.82329579  .00002015  00000+0  75224-3 0  9995",
        "tle_line2": "2 36528  74.0168 170.5765 0085819 223.2164 136.2231 14.30521775642289"
      },
      "geometry": {
        "type": "Point",
        "coordinates": [
          112.55425778939185,
          -69.89988173103256
        ]
      }
    },
    {
      "type": "Feature",
      "properties": {
        "norad_id": 36533,
        "name": "COSMOS 2251 DEB",
        "group": "cosmos-2251-debris",
        "lat": 73.02543611582561,
        "lon": -155.73589926711392,
        "alt_km": 751.6390747086043,
        "timestamp": "2025-12-02T08:59:33.112181+00:00",
        "meta_object_name": "COSMOS 2251 DEB",
        "meta_object_id": "1993-036BCT",
        "meta_epoch": "2025-12-01T04:26:58.600608",
        "meta_mean_motion": 14.49745776,
        "meta_eccentricity": 0.0049073,
        "meta_inclination": 74.0099,
        "meta_ra_of_asc_node": 136.5489,
        "meta_arg_of_pericenter": 287.7686,
        "meta_mean_anomaly": 71.8122,
        "meta_ephemeris_type": 0,
        "meta_classification_type": "U",
        "meta_norad_cat_id": 36533,
        "meta_element_set_no": 999,
        "meta_rev_at_epoch": 84317,
        "meta_bstar": 0.00049944,
        "meta_mean_motion_dot": 1.925e-05,
        "meta_mean_motion_ddot": 0,
        "tle_line1": "1 36533U 93036BCT 25335.18540047  .00001925  00000+0  49944-3 0  9997",
        "tle_line2": "2 36533  74.0099 136.5489 0049073 287.7686  71.8122 14.49745776843172"
      },
      "geometry": {
        "type": "Point",
        "coordinates": [
          -155.73589926711392,
          73.02543611582561
        ]
      }
    },
    {
      "type": "Feature",
      "properties": {
        "norad_id": 36539,
        "name": "COSMOS 2251 DEB",
        "group": "cosmos-2251-debris",
        "lat": -62.2369199822686,
        "lon": 41.97939545932124,
        "alt_km": 696.4135826164138,
        "timestamp": "2025-12-02T08:59:33.112190+00:00",
        "meta_object_name": "COSMOS 2251 DEB",
        "meta_object_id": "1993-036BCZ",
        "meta_epoch": "2025-12-01T08:37:04.010016",
        "meta_mean_motion": 14.59167391,
        "meta_eccentricity": 0.00278715,
        "meta_inclination": 74.0238,
        "meta_ra_of_asc_node": 76.8866,
        "meta_arg_of_pericenter": 223.5555,
        "meta_mean_anomaly": 136.341,
        "meta_ephemeris_type": 0,
        "meta_classification_type": "U",
        "meta_norad_cat_id": 36539,
        "meta_element_set_no": 999,
        "meta_rev_at_epoch": 83781,
        "meta_bstar": 0.0010197061,
        "meta_mean_motion_dot": 4.804e-05,
        "meta_mean_motion_ddot": 0,
        "tle_line1": "1 36539U 93036BCZ 25335.35907419  .00004804  00000+0  10197-2 0  9998",
        "tle_line2": "2 36539  74.0238  76.8866 0027871 223.5555 136.3410 14.59167391837816"
      },
      "geometry": {
        "type": "Point",
        "coordinates": [
          41.97939545932124,
          -62.2369199822686
        ]
      }
    },
    {
      "type": "Feature",
      "properties": {
        "norad_id": 36540,
        "name": "COSMOS 2251 DEB",
        "group": "cosmos-2251-debris",
        "lat": -67.61613940141463,
        "lon": 156.19785049485102,
        "alt_km": 694.9386662179459,
        "timestamp": "2025-12-02T08:59:33.112201+00:00",
        "meta_object_name": "COSMOS 2251 DEB",
        "meta_object_id": "1993-036BDA",
        "meta_epoch": "2025-12-01T15:13:14.879136",
        "meta_mean_motion": 14.58315335,
        "meta_eccentricity": 0.00154501,
        "meta_inclination": 74.0298,
        "meta_ra_of_asc_node": 201.6617,
        "meta_arg_of_pericenter": 272.4104,
        "meta_mean_anomaly": 87.5292,
        "meta_ephemeris_type": 0,
        "meta_classification_type": "U",
        "meta_norad_cat_id": 36540,
        "meta_element_set_no": 999,
        "meta_rev_at_epoch": 85848,
        "meta_bstar": 0.0010405157,
        "meta_mean_motion_dot": 4.795e-05,
        "meta_mean_motion_ddot": 0,
        "tle_line1": "1 36540U 93036BDA 25335.63419999  .00004795  00000+0  10405-2 0  9993",
        "tle_line2": "2 36540  74.0298 201.6617 0015450 272.4104  87.5292 14.58315335858482"
      },
      "geometry": {
        "type": "Point",
        "coordinates": [
          156.19785049485102,
          -67.61613940141463
        ]
      }
    },
    {
      "type": "Feature",
      "properties": {
        "norad_id": 36550,
        "name": "COSMOS 2251 DEB",
        "group": "cosmos-2251-debris",
        "lat": -28.245699784749533,
        "lon": 40.33064703189009,
        "alt_km": 773.8758145258444,
        "timestamp": "2025-12-02T08:59:33.112211+00:00",
        "meta_object_name": "COSMOS 2251 DEB",
        "meta_object_id": "1993-036BDL",
        "meta_epoch": "2025-11-29T22:48:25.081920",
        "meta_mean_motion": 14.27140631,
        "meta_eccentricity": 0.00789359,
        "meta_inclination": 74.0446,
        "meta_ra_of_asc_node": 215.8731,
        "meta_arg_of_pericenter": 269.2877,
        "meta_mean_anomaly": 89.9226,
        "meta_ephemeris_type": 0,
        "meta_classification_type": "U",
        "meta_norad_cat_id": 36550,
        "meta_element_set_no": 999,
        "meta_rev_at_epoch": 84413,
        "meta_bstar": 0.00064991596,
        "meta_mean_motion_dot": 1.613e-05,
        "meta_mean_motion_ddot": 0,
        "tle_line1": "1 36550U 93036BDL 25333.95029030  .00001613  00000+0  64992-3 0  9997",
        "tle_line2": "2 36550  74.0446 215.8731 0078935 269.2877  89.9226 14.27140631844131"
      },
      "geometry": {
        "type": "Point",
        "coordinates": [
          40.33064703189009,
          -28.245699784749533
        ]
      }
    }
  ]
}